*******************************************************************************
Ephemeris / WWW_USER Fri Mar  7 09:48:22 2025 Pasadena, USA      / Horizons    
*******************************************************************************
Target body name: Pluto (999)                     {source: plu060_merged}
Center body name: Earth (399)                     {source: DE441}
Center-site name: Mauna Kea
*******************************************************************************
Start time      : A.D. 2018-Nov-11 03:53:00.0000 UT      
Stop  time      : A.D. 2018-Nov-11 16:18:00.0000 UT      
Step-size       : 1 minutes
*******************************************************************************
Target pole/equ : IAU_PLUTO                       {East-longitude positive}
Target radii    : 1188.3, 1188.3, 1188.3 km       {Equator_a, b, pole_c}       
Center geodetic : 204.5278, 19.8260847, 4.21024   {E-lon(deg),Lat(deg),Alt(km)}
Center cylindric: 204.5278, 6006.35451, 2151.0229 {E-lon(deg),Dxy(km),Dz(km)}
Center pole/equ : ITRF93                          {East-longitude positive}
Center radii    : 6378.137, 6378.137, 6356.752 km {Equator_a, b, pole_c}       
Target primary  : Sun
Vis. interferer : MOON (R_eq= 1737.400) km        {source: DE441}
Rel. light bend : Sun                             {source: plu060_merged}
Rel. lght bnd GM: 1.3271E+11 km^3/s^2                                          
Atmos refraction: NO (AIRLESS)
RA format       : HMS
Time format     : CAL 
Calendar mode   : Mixed Julian/Gregorian
RTS-only print  : NO       
EOP file        : eop.250306.p250602                                           
EOP coverage    : DATA-BASED 1962-JAN-20 TO 2025-MAR-06. PREDICTS-> 2025-JUN-01
Units conversion: 1 au= 149597870.700 km, c= 299792.458 km/s, 1 day= 86400.0 s 
Table cut-offs 1: Elevation (-90.0deg=NO ),Airmass (>38.000=NO), Daylight (YES)
Table cut-offs 2: Solar elongation (  0.0,180.0=NO ),Local Hour Angle( 0.0=NO )
Table cut-offs 3: RA/DEC angular rate (     0.0=NO )                           
*******************************************************************************
 Date__(UT)__HR:MN     R.A._________(ICRF)_________DEC
******************************************************
$$SOE
 2018-Nov-11 10:56     19 21 57.448325 -22 07 44.57433
 2018-Nov-11 10:57     19 21 57.451947 -22 07 44.57084
 2018-Nov-11 10:58     19 21 57.455569 -22 07 44.56736
 2018-Nov-11 10:59     19 21 57.459191 -22 07 44.56388
 2018-Nov-11 11:00     19 21 57.462814 -22 07 44.56039
 2018-Nov-11 11:01     19 21 57.466437 -22 07 44.55691
 2018-Nov-11 11:02     19 21 57.470060 -22 07 44.55343
 2018-Nov-11 11:03     19 21 57.473684 -22 07 44.54995
 2018-Nov-11 11:04     19 21 57.477308 -22 07 44.54647
 2018-Nov-11 11:05     19 21 57.480933 -22 07 44.54299
 2018-Nov-11 11:06     19 21 57.484557 -22 07 44.53951
 2018-Nov-11 11:07     19 21 57.488182 -22 07 44.53604
 2018-Nov-11 11:08     19 21 57.491807 -22 07 44.53256
 2018-Nov-11 11:09     19 21 57.495433 -22 07 44.52909
 2018-Nov-11 11:10     19 21 57.499059 -22 07 44.52562
 2018-Nov-11 11:11     19 21 57.502685 -22 07 44.52214
 2018-Nov-11 11:12     19 21 57.506311 -22 07 44.51867
 2018-Nov-11 11:13     19 21 57.509938 -22 07 44.51520
 2018-Nov-11 11:14     19 21 57.513565 -22 07 44.51173
 2018-Nov-11 11:15     19 21 57.517193 -22 07 44.50827
 2018-Nov-11 11:16     19 21 57.520820 -22 07 44.50480
 2018-Nov-11 11:17     19 21 57.524448 -22 07 44.50133
 2018-Nov-11 11:18     19 21 57.528076 -22 07 44.49787
 2018-Nov-11 11:19     19 21 57.531705 -22 07 44.49441
 2018-Nov-11 11:20     19 21 57.535334 -22 07 44.49094
 2018-Nov-11 11:21     19 21 57.538963 -22 07 44.48748
 2018-Nov-11 11:22     19 21 57.542592 -22 07 44.48402
 2018-Nov-11 11:23     19 21 57.546222 -22 07 44.48056
 2018-Nov-11 11:24     19 21 57.549852 -22 07 44.47710
 2018-Nov-11 11:25     19 21 57.553482 -22 07 44.47365
 2018-Nov-11 11:26     19 21 57.557113 -22 07 44.47019
 2018-Nov-11 11:27     19 21 57.560744 -22 07 44.46674
 2018-Nov-11 11:28     19 21 57.564375 -22 07 44.46328
 2018-Nov-11 11:29     19 21 57.568006 -22 07 44.45983
 2018-Nov-11 11:30     19 21 57.571638 -22 07 44.45638
 2018-Nov-11 11:31     19 21 57.575270 -22 07 44.45293
 2018-Nov-11 11:32     19 21 57.578902 -22 07 44.44948
 2018-Nov-11 11:33     19 21 57.582535 -22 07 44.44603
 2018-Nov-11 11:34     19 21 57.586168 -22 07 44.44259
 2018-Nov-11 11:35     19 21 57.589801 -22 07 44.43914
 2018-Nov-11 11:36     19 21 57.593434 -22 07 44.43570
 2018-Nov-11 11:37     19 21 57.597068 -22 07 44.43225
 2018-Nov-11 11:38     19 21 57.600702 -22 07 44.42881
 2018-Nov-11 11:39     19 21 57.604336 -22 07 44.42537
 2018-Nov-11 11:40     19 21 57.607971 -22 07 44.42193
 2018-Nov-11 11:41     19 21 57.611606 -22 07 44.41849
 2018-Nov-11 11:42     19 21 57.615241 -22 07 44.41506
 2018-Nov-11 11:43     19 21 57.618876 -22 07 44.41162
 2018-Nov-11 11:44     19 21 57.622511 -22 07 44.40819
 2018-Nov-11 11:45     19 21 57.626147 -22 07 44.40475
 2018-Nov-11 11:46     19 21 57.629783 -22 07 44.40132
 2018-Nov-11 11:47     19 21 57.633420 -22 07 44.39789
 2018-Nov-11 11:48     19 21 57.637056 -22 07 44.39446
 2018-Nov-11 11:49     19 21 57.640693 -22 07 44.39103
 2018-Nov-11 11:50     19 21 57.644330 -22 07 44.38760
 2018-Nov-11 11:51     19 21 57.647968 -22 07 44.38418
 2018-Nov-11 11:52     19 21 57.651606 -22 07 44.38075
 2018-Nov-11 11:53     19 21 57.655243 -22 07 44.37733
 2018-Nov-11 11:54     19 21 57.658882 -22 07 44.37391
 2018-Nov-11 11:55     19 21 57.662520 -22 07 44.37049
 2018-Nov-11 11:56     19 21 57.666159 -22 07 44.36707
 2018-Nov-11 11:57     19 21 57.669798 -22 07 44.36365
 2018-Nov-11 11:58     19 21 57.673437 -22 07 44.36023
 2018-Nov-11 11:59     19 21 57.677076 -22 07 44.35681
 2018-Nov-11 12:00     19 21 57.680716 -22 07 44.35340
 2018-Nov-11 12:01     19 21 57.684356 -22 07 44.34999
 2018-Nov-11 12:02     19 21 57.687996 -22 07 44.34657
 2018-Nov-11 12:03     19 21 57.691637 -22 07 44.34316
 2018-Nov-11 12:04     19 21 57.695277 -22 07 44.33975
 2018-Nov-11 12:05     19 21 57.698918 -22 07 44.33635
 2018-Nov-11 12:06     19 21 57.702560 -22 07 44.33294
 2018-Nov-11 12:07     19 21 57.706201 -22 07 44.32953
 2018-Nov-11 12:08     19 21 57.709843 -22 07 44.32613
 2018-Nov-11 12:09     19 21 57.713484 -22 07 44.32273
 2018-Nov-11 12:10     19 21 57.717127 -22 07 44.31932
 2018-Nov-11 12:11     19 21 57.720769 -22 07 44.31592
 2018-Nov-11 12:12     19 21 57.724412 -22 07 44.31253
 2018-Nov-11 12:13     19 21 57.728054 -22 07 44.30913
 2018-Nov-11 12:14     19 21 57.731698 -22 07 44.30573
 2018-Nov-11 12:15     19 21 57.735341 -22 07 44.30234
 2018-Nov-11 12:16     19 21 57.738984 -22 07 44.29894
 2018-Nov-11 12:17     19 21 57.742628 -22 07 44.29555
 2018-Nov-11 12:18     19 21 57.746272 -22 07 44.29216
 2018-Nov-11 12:19     19 21 57.749916 -22 07 44.28877
 2018-Nov-11 12:20     19 21 57.753561 -22 07 44.28538
 2018-Nov-11 12:21     19 21 57.757205 -22 07 44.28200
 2018-Nov-11 12:22     19 21 57.760850 -22 07 44.27861
 2018-Nov-11 12:23     19 21 57.764495 -22 07 44.27523
 2018-Nov-11 12:24     19 21 57.768141 -22 07 44.27185
 2018-Nov-11 12:25     19 21 57.771786 -22 07 44.26846
 2018-Nov-11 12:26     19 21 57.775432 -22 07 44.26508
 2018-Nov-11 12:27     19 21 57.779078 -22 07 44.26171
 2018-Nov-11 12:28     19 21 57.782724 -22 07 44.25833
 2018-Nov-11 12:29     19 21 57.786371 -22 07 44.25495
 2018-Nov-11 12:30     19 21 57.790017 -22 07 44.25158
 2018-Nov-11 12:31     19 21 57.793664 -22 07 44.24821
 2018-Nov-11 12:32     19 21 57.797311 -22 07 44.24484
 2018-Nov-11 12:33     19 21 57.800958 -22 07 44.24147
 2018-Nov-11 12:34     19 21 57.804606 -22 07 44.23810
 2018-Nov-11 12:35     19 21 57.808254 -22 07 44.23473
 2018-Nov-11 12:36     19 21 57.811901 -22 07 44.23137
 2018-Nov-11 12:37     19 21 57.815550 -22 07 44.22800
 2018-Nov-11 12:38     19 21 57.819198 -22 07 44.22464
 2018-Nov-11 12:39     19 21 57.822846 -22 07 44.22128
 2018-Nov-11 12:40     19 21 57.826495 -22 07 44.21792
 2018-Nov-11 12:41     19 21 57.830144 -22 07 44.21456
 2018-Nov-11 12:42     19 21 57.833793 -22 07 44.21120
 2018-Nov-11 12:43     19 21 57.837442 -22 07 44.20785
 2018-Nov-11 12:44     19 21 57.841092 -22 07 44.20449
 2018-Nov-11 12:45     19 21 57.844741 -22 07 44.20114
 2018-Nov-11 12:46     19 21 57.848391 -22 07 44.19779
 2018-Nov-11 12:47     19 21 57.852041 -22 07 44.19444
 2018-Nov-11 12:48     19 21 57.855691 -22 07 44.19109
 2018-Nov-11 12:49     19 21 57.859342 -22 07 44.18775
 2018-Nov-11 12:50     19 21 57.862992 -22 07 44.18440
 2018-Nov-11 12:51     19 21 57.866643 -22 07 44.18106
 2018-Nov-11 12:52     19 21 57.870294 -22 07 44.17772
 2018-Nov-11 12:53     19 21 57.873945 -22 07 44.17437
 2018-Nov-11 12:54     19 21 57.877597 -22 07 44.17104
 2018-Nov-11 12:55     19 21 57.881248 -22 07 44.16770
 2018-Nov-11 12:56     19 21 57.884900 -22 07 44.16436
 2018-Nov-11 12:57     19 21 57.888552 -22 07 44.16103
 2018-Nov-11 12:58     19 21 57.892204 -22 07 44.15769
 2018-Nov-11 12:59     19 21 57.895856 -22 07 44.15436
 2018-Nov-11 13:00     19 21 57.899508 -22 07 44.15103
 2018-Nov-11 13:01     19 21 57.903161 -22 07 44.14770
 2018-Nov-11 13:02     19 21 57.906814 -22 07 44.14438
 2018-Nov-11 13:03     19 21 57.910467 -22 07 44.14105
 2018-Nov-11 13:04     19 21 57.914120 -22 07 44.13773
 2018-Nov-11 13:05     19 21 57.917773 -22 07 44.13440
 2018-Nov-11 13:06     19 21 57.921426 -22 07 44.13108
 2018-Nov-11 13:07     19 21 57.925080 -22 07 44.12776
 2018-Nov-11 13:08     19 21 57.928733 -22 07 44.12444
 2018-Nov-11 13:09     19 21 57.932387 -22 07 44.12113
 2018-Nov-11 13:10     19 21 57.936041 -22 07 44.11781
 2018-Nov-11 13:11     19 21 57.939696 -22 07 44.11450
 2018-Nov-11 13:12     19 21 57.943350 -22 07 44.11119
 2018-Nov-11 13:13     19 21 57.947004 -22 07 44.10788
 2018-Nov-11 13:14     19 21 57.950659 -22 07 44.10457
 2018-Nov-11 13:15     19 21 57.954314 -22 07 44.10126
 2018-Nov-11 13:16     19 21 57.957969 -22 07 44.09796
